METEOR-M2-4
1 59051U 24039A   26090.87736454  .00000053  00000+0  43342-4 0  9996
2 59051  98.6944  51.1781 0007821  40.5028 319.6731 14.22420774108273
SONATE-2
1 59112U 24043Q   26090.83555594  .00045793  00000+0  72739-3 0  9990
2 59112  97.5433 236.8647 0007841 127.2401 232.9568 15.53176222115864
GRBBeta
1 60237U 24128C   26090.48648024  .00004849  00000+0  33654-3 0  9996
2 60237  61.9890 128.7498 0049365 118.2633 242.3455 15.06013627 94563
Curium One
1 60242U 24128H   26090.52430129  .00009328  00000+0  54848-3 0  9997
2 60242  61.9776 120.5818 0048992 114.4888 246.1327 15.11263552 94710
ROBUSTA-3A
1 60243U 24128J   26090.31448923  .00008433  00000+0  50756-3 0  9996
2 60243  61.9853 123.3754 0049964 112.0999 248.5411 15.10482377 94654
CatSat
1 60246U 24125J   26090.31874166  .00054393  00000+0  92389-3 0  9992
2 60246  97.2179 302.2391 0027392 111.0073 249.4113 15.50862002 95299
ARTIC WX
1 60543U 24149CD  26090.64550052  .00000805  00000+0  89531-4 0  9994
2 60543  97.6845 163.3115 0002635  43.1211 317.0213 14.89795302 87759
ARCTICSAT 1
1 61762U 24199AD  26090.83806073  .00146110  00000+0  11532-2 0  9995
2 61762  97.3039 330.0799 0006302 155.4512 204.7052 15.70935546125867
HYPERVIEW-1G (RS66S)
1 61772U 24199AP  26090.82886203  .00088865  00000+0  10387-2 0  9997
2 61772  97.3043 327.5237 0007838 183.4351 176.6854 15.61265170122557
AO-123
1 61781U 24199AY  26090.85585991  .00010972  00000+0  32973-3 0  9990
2 61781  97.3120 320.2377 0012969 220.6462 139.3815 15.34498884122065
SAMSAT-IONOSPHERE
1 61784U 24199BB  26090.80808395  .00047775  00000+0  80846-3 0  9997
2 61784  97.3080 325.1939 0009452 195.1431 164.9540 15.51379720125547
LASARsat
1 62391U 24247Q   26090.40279860  .00037643  00000+0  87723-3 0  9995
2 62391  44.9776 337.7469 0004915 218.0536 142.0006 15.41670540 71298
CROCUBE
1 62394U 24247T   26090.09167125  .00047582  00000+0  10595-2 0  9998
2 62394  44.9745 337.8767 0004295 214.1395 145.9218 15.42938843 71268
JINJUSat 1B
1 63210U 25052A   26090.43377507  .00021634  00000+0  72268-3 0  9992
2 63210  97.4097 347.1923 0004049  33.8999 326.2500 15.31036193 58190
NUSHSAT 1
1 63211U 25052B   26090.45698581  .00026759  00000+0  84184-3 0  9996
2 63211  97.4076 347.5481 0004076  37.7716 322.3812 15.32920645 58223
TEVEL2-4
1 63213U 25052D   26090.45336585  .00024355  00000+0  79270-3 0  9991
2 63213  97.3997 346.8402 0003982  54.9081 305.2533 15.31850608 58200
TEVEL2-5
1 63214U 25052E   26090.46612514  .00024536  00000+0  80183-3 0  9998
2 63214  97.3998 346.8209 0003973  54.3555 305.8056 15.31718007 58209
TEVEL2-6
1 63215U 25052F   26090.47652649  .00024022  00000+0  78614-3 0  9999
2 63215  97.4001 346.8167 0004054  54.1393 306.0225 15.31677394 58202
TEVEL2-1
1 63217U 25052H   26089.63136020  .00026411  00000+0  87678-3 0  9991
2 63217  97.3973 345.6840 0004572  64.1397 296.0315 15.31193133 58062
TEVEL2-3
1 63218U 25052J   26090.21656016  .00021894  00000+0  72617-3 0  9997
2 63218  97.3977 346.2810 0004513  64.2393 295.9313 15.31261176 58152
TEVEL2-2
1 63219U 25052K   26089.43592756  .00025959  00000+0  86207-3 0  9996
2 63219  97.3972 345.4901 0004553  65.2311 294.9404 15.31186221 58039
TEVEL2-9
1 63237U 25052AD  26090.23305081  .00020688  00000+0  72525-3 0  9991
2 63237  97.4038 345.8159 0008228  66.9408 293.2699 15.29452173 58105
TEVEL2-7
1 63238U 25052AE  26090.26052549  .00020774  00000+0  73347-3 0  9992
2 63238  97.4038 345.7889 0008307  66.7283 293.4831 15.29216777 58100
TEVEL2-8
1 63239U 25052AF  26090.26784860  .00021254  00000+0  75075-3 0  9995
2 63239  97.4035 345.7758 0008298  67.4156 292.7961 15.29198524 58104
HYDRA-W
1 63490U 25052BL  26090.46181897  .00434850  00000+0  27784-2 0  9990
2 63490  97.3878 352.7868 0006644  91.6652 268.5374 15.75109111 58609
HADES-ICM (SO-125)
1 63492U 25052BN  26090.24672970  .00229533  00000+0  23475-2 0  9998
2 63492  97.3911 351.5841 0007370  77.1875 283.0207 15.64254674 58509
PARUS-T2
1 64574U 25135AY  26090.87958227  .00005943  00000+0  54683-3 0  9996
2 64574  97.7648 206.5158 0001515 179.2239 180.8984 14.95128655 42371
Geoscan-1
1 64880U 25155E   26090.87533747  .00016711  00000+0  59401-3 0  9992
2 64880  97.4490  59.3378 0010186  91.5995 268.6411 15.29026754 68957
Geoscan-2
1 64890U 25155Q   26090.88333718  .00016410  00000+0  57819-3 0  9997
2 64890  97.4489  59.4661 0009486  81.3713 278.8601 15.29326239 68964
Geoscan-4
1 64892U 25155S   26090.87393796  .00022796  00000+0  75750-3 0  9998
2 64892  97.4490  59.8023 0008759  96.3987 263.8252 15.31167192 68987
Geoscan-3
1 64893U 25155T   26090.89689315  .00025780  00000+0  81736-3 0  9993
2 64893  97.4481  60.0612 0008604  97.3892 262.8328 15.32653240 69003
SPIRONE
1 66657U 25274H   26090.32977175  .00003633  00000+0  35279-3 0  9991
2 66657  97.7452  20.7678 0010680 274.5486  85.4514 14.93203341 18609
K-HERO
1 66660U 25274L   26090.75863897  .00004047  00000+0  38782-3 0  9999
2 66660  97.7466  21.2929 0012328 277.9747  82.0074 14.93655263 18676
SNUGLITE-III DURI
1 66661U 25274M   26090.68234365  .00003870  00000+0  37040-3 0  9993
2 66661  97.7458  21.2344 0013027 279.0703  80.9043 14.93725534 18662
SilverSat
1 66909U 98067XV  26089.99737683  .00407567  00000+0  17359-2 0  9992
2 66909  51.6200 314.8852 0007665 225.3563 134.6816 15.83552073 18554
GALAPAGOS
1 67279U 25313AH  26090.83998199  .00009784  00000+0  43361-3 0  9995
2 67279  97.3968 166.7155 0012836 275.1036  84.8735 15.21748309 14189
Lobachevsky
1 67282U 25313AL  26090.80023340  .00007801  00000+0  34209-3 0  9992
2 67282  97.3971 166.7561 0009183 270.5013  89.5171 15.22214182 14187
SAKHACUBE-CHOLBON
1 67290U 25313AU  26090.82224629  .00013754  00000+0  57967-3 0  9996
2 67290  97.3978 166.8957 0008099 265.6891  94.3420 15.23415191 14193
RS95S (QMR-KWT-2)
1 67291U 25313AV  26090.80034140  .00018342  00000+0  75386-3 0  9995
2 67291  97.3978 166.9238 0007893 263.2821  96.7518 15.24202344 14194
Ten-Koh2
1 68261U 25241B   26090.86916705  .00010551  00000+0  45831-3 0  9991
2 68261  51.6394 327.4148 0004541 237.0257 123.0284 15.22816119  3124
Delfi-N3xt
1 39428U 13066N   26090.51713342  .00010497  00000-0  93199-3 0  9990
2 39428  97.8348  10.9609 0077758 104.7006 256.2849 14.94009005663029
IO-86
1 40931U          25360.30710720  .00000000  00000-0  12800-3 0    00
2 40931   6.0006 332.5373 0012733 338.8432   8.1437 14.79075515    01
HADES-SA/SpinnyONE
1 71958C 26067D   26089.49758863 -.00009989  00000 0 -51655-3 0    00
2 71958  97.4320  49.1630 0007687  13.6276 327.6456 15.16316797    13
LILIUM-4
1 71922C 26067AC  26089.50133053 -.00014632  00000 0 -74472-3 0    04
2 71922  97.4497  49.1617 0004341   5.9603 355.7042 15.16896692    16
PARUS-6U1
1 71919C 26067Q   26089.49893470 -.00013781  00000 0 -70600-3 0    07
2 71919  97.4488  49.1589 0005235 359.3198 349.2677 15.16662579    15
JACK-002
1 71927C 26067C   26089.49750414 -.00013014  00000 0 -63498-3 0    02
2 71927  97.4500  49.1567 0002681 143.8886 196.8842 15.18377566    18
SAL-E
1 71904C 26067L   26089.49846595 -.00007742  00000 0 -39877-3 0    08
2 71904  97.4412  49.1602 0006442   8.2554 337.7892 15.16462720    16
DISCO-2
1 71908C 26067U   26089.49955160 -.00011726  00000 0 -58129-3 0    09
2 71908  97.4541  49.1588 0000289 282.0588  69.8834 15.17826845    10
PARUS-T1
1 98707U 25009N   25063.20000000  .00000000  00000-0  00000-0 0    08
2 98707  97.4430 144.9801 0003811 149.1702 136.3402 15.16239457    06
T.MicroSat-1
1 98515U 25276Y   25347.12519372 +.00009703 +00000+0 +47621-3 0 00218
2 98515  97.4377  58.8963 0002080  99.7173 260.4296 15.18293117002180
HADES-SA
1 98380C 26066D   26089.49808273 -.00010354  00000+0 -53600-3 0    08
2 98380  97.4273  49.1561 0007212  13.1555 330.7824 15.16284288    13
CORIOLIS
1 27640U 03001A   26090.89655487  .00000189  00000+0  10943-3 0  9999
2 27640  98.7158  98.9544 0015135  76.9429 283.3436 14.19921634203251
